     2              NAVIGATION DATA                         RINEX VERSION / TYPE
CCRINEXN V1.6.0 UX  CDDIS               09-JUN-24 23:31     PGM / RUN BY / DATE 
IGS BROADCAST EPHEMERIS FILE                                COMMENT             
    0.2142D-07  0.2235D-07 -0.1192D-06 -0.5960D-07          ION ALPHA           
    0.1290D+06  0.1311D+06 -0.1966D+06 -0.6554D+05          ION BETA            
    0.651925802231D-08 0.177635683940D-13   147456     2318 DELTA-UTC: A0,A1,T,W
    18                                                      LEAP SECONDS        
                                                            END OF HEADER       
27 24  6  8 20  0  0.0-0.274879857898D-04-0.147792889038D-11 0.000000000000D+00
    0.300000000000D+02 0.112218750000D+03 0.437125350883D-08-0.184651794803D+00
    0.604614615440D-05 0.125341075472D-01 0.859051942825D-05 0.515368446732D+04
    0.590400000000D+06 0.558793544769D-07 0.838006970903D+00 0.176951289177D-06
    0.962190752661D+00 0.218937500000D+03 0.796452355689D+00-0.807319342377D-08
    0.753602819154D-10 0.100000000000D+01 0.231700000000D+04 0.000000000000D+00
    0.200000000000D+01 0.000000000000D+00 0.186264514923D-08 0.300000000000D+02
    0.583218000000D+06 0.400000000000D+01 0.000000000000D+00 0.000000000000D+00
28 24  6  8 20  0  0.0-0.280126463622D-03-0.169393388205D-10 0.000000000000D+00
    0.149000000000D+03 0.462500000000D+01 0.475198365348D-08 0.184144327246D+01
    0.236555933952D-06 0.309072667733D-03 0.586174428463D-05 0.515365090370D+04
    0.590400000000D+06 0.689178705216D-07-0.128082193359D+01-0.111758708954D-07
    0.960893144325D+00 0.268000000000D+03 0.164643025796D+01-0.798568977889D-08
    0.207508643568D-09 0.100000000000D+01 0.231700000000D+04 0.000000000000D+00
    0.200000000000D+01 0.000000000000D+00-0.931322574616D-08 0.917000000000D+03
    0.583218000000D+06 0.400000000000D+01 0.000000000000D+00 0.000000000000D+00
29 24  6  8 20  0  0.0-0.595089048147D-03 0.170530256582D-11 0.000000000000D+00
    0.700000000000D+02 0.139687500000D+03 0.405159733672D-08-0.239076608832D+00
    0.713020563126D-05 0.296924705617D-02 0.794976949692D-05 0.515358821106D+04
    0.590400000000D+06 0.558793544769D-08 0.921381086055D+00-0.223517417908D-07
    0.971320223135D+00 0.227937500000D+03 0.256048781958D+01-0.783318342639D-08
    0.139648674071D-09 0.100000000000D+01 0.231700000000D+04 0.000000000000D+00
    0.200000000000D+01 0.000000000000D+00-0.977888703346D-08 0.700000000000D+02
    0.583218000000D+06 0.400000000000D+01 0.000000000000D+00 0.000000000000D+00
30 24  6  8 20  0  0.0-0.377431977540D-03 0.613908923697D-11 0.000000000000D+00
    0.820000000000D+02 0.309375000000D+01 0.534986570052D-08 0.302685421411D+01
    0.689178705216D-07 0.717101234477D-02 0.534020364284D-05 0.515362108231D+04
    0.590400000000D+06-0.223517417908D-07-0.124742960690D+01-0.670552253723D-07
    0.934950245185D+00 0.262500000000D+03-0.245713245978D+01-0.819784147300D-08
    0.127505311108D-09 0.100000000000D+01 0.231700000000D+04 0.000000000000D+00
    0.200000000000D+01 0.000000000000D+00 0.419095158577D-08 0.820000000000D+02
    0.583218000000D+06 0.400000000000D+01 0.000000000000D+00 0.000000000000D+00
32 24  6  8 20  0  0.0-0.616782344878D-03 0.102318153950D-11 0.000000000000D+00
    0.110000000000D+03-0.547187500000D+02 0.434375236329D-08 0.473479751772D+00
   -0.273622572422D-05 0.776316423435D-02 0.961683690548D-05 0.515368438339D+04
    0.590400000000D+06-0.763684511185D-07-0.230581337776D+01 0.949949026108D-07
    0.962062287973D+00 0.198031250000D+03-0.212971022961D+01-0.783746931920D-08
    0.286440502825D-09 0.100000000000D+01 0.231700000000D+04 0.000000000000D+00
    0.200000000000D+01 0.000000000000D+00 0.931322574616D-09 0.110000000000D+03
    0.583236000000D+06 0.400000000000D+01 0.000000000000D+00 0.000000000000D+00
13 24  6  8 21 59 28.0 0.656557269394D-03 0.261479726760D-11 0.000000000000D+00
    0.980000000000D+02-0.297812500000D+02 0.424446251319D-08 0.527448767341D+00
   -0.133551657200D-05 0.812895910349D-02 0.990740954876D-05 0.515365895271D+04
    0.597568000000D+06-0.100582838059D-06-0.215445036432D+01 0.838190317154D-07
    0.971444386844D+00 0.192875000000D+03 0.924758029095D+00-0.780603943859D-08
    0.377872882780D-09 0.100000000000D+01 0.231700000000D+04 0.000000000000D+00
    0.200000000000D+01 0.000000000000D+00-0.111758708954D-07 0.980000000000D+02
    0.593706000000D+06 0.400000000000D+01 0.000000000000D+00 0.000000000000D+00
 5 24  6  8 21 59 44.0-0.175638590008D-03-0.136424205266D-11 0.000000000000D+00
    0.630000000000D+02-0.129968750000D+03 0.438411118726D-08 0.116731207320D+01
   -0.670365989208D-05 0.590161653236D-02 0.529550015926D-05 0.515362938309D+04
    0.597584000000D+06-0.171363353729D-06 0.289280808089D+01 0.372529029846D-07
    0.971867016562D+00 0.287250000000D+03 0.125917775486D+01-0.811498087867D-08
   -0.183579075377D-09 0.100000000000D+01 0.231700000000D+04 0.000000000000D+00
    0.200000000000D+01 0.000000000000D+00-0.107102096081D-07 0.630000000000D+02
    0.594456000000D+06 0.400000000000D+01 0.000000000000D+00 0.000000000000D+00
 8 24  6  8 21 59 44.0 0.220350921154D-03 0.185309545486D-10 0.000000000000D+00
    0.161000000000D+03 0.117718750000D+03 0.435232414891D-08 0.798929075997D+00
    0.617653131485D-05 0.945980346296D-02 0.873953104019D-05 0.515364666176D+04
    0.597584000000D+06-0.372529029846D-07 0.811378277711D+00 0.208616256714D-06
    0.953197155093D+00 0.207062500000D+03 0.365608815909D+00-0.795318842508D-08
   -0.528593446610D-10 0.100000000000D+01 0.231700000000D+04 0.000000000000D+00
    0.200000000000D+01 0.000000000000D+00 0.465661287308D-08 0.161000000000D+03
    0.590592000000D+06 0.400000000000D+01 0.000000000000D+00 0.000000000000D+00
13 24  6  8 21 59 44.0 0.656557269394D-03 0.261479726760D-11 0.000000000000D+00
    0.650000000000D+02-0.297812500000D+02 0.424446251319D-08 0.529782566405D+00
   -0.133551657200D-05 0.812895898707D-02 0.990740954876D-05 0.515365895081D+04
    0.597584000000D+06-0.100582838059D-06-0.215445048720D+01 0.838190317154D-07
    0.971444389769D+00 0.192875000000D+03 0.924757982282D+00-0.780603943859D-08
    0.377872882780D-09 0.100000000000D+01 0.231700000000D+04 0.000000000000D+00
    0.200000000000D+01 0.000000000000D+00-0.111758708954D-07 0.650000000000D+02
    0.592296000000D+06 0.400000000000D+01 0.000000000000D+00 0.000000000000D+00
17 24  6  8 21 59 44.0 0.697249546647D-03-0.511590769747D-11 0.000000000000D+00
    0.150000000000D+02 0.112718750000D+03 0.408445584827D-08 0.796417510443D+00
    0.590085983276D-05 0.133916197810D-01 0.763498246670D-05 0.515374829102D+04
    0.597584000000D+06-0.160187482834D-06 0.906288299208D+00-0.186264514923D-06
    0.968902287264D+00 0.234437500000D+03-0.131899828621D+01-0.804819238238D-08
    0.123933733766D-09 0.100000000000D+01 0.231700000000D+04 0.000000000000D+00
    0.200000000000D+01 0.000000000000D+00-0.111758708954D-07 0.150000000000D+02
    0.590826000000D+06 0.400000000000D+01 0.000000000000D+00 0.000000000000D+00
32 24  6  8 21 59 44.0-0.616773497313D-03 0.102318153950D-11 0.000000000000D+00
    0.120000000000D+02-0.692500000000D+02 0.425267714107D-08 0.152103485380D+01
   -0.358559191227D-05 0.776455434971D-02 0.102669000626D-04 0.515368930054D+04
    0.597584000000D+06-0.208616256714D-06-0.230586999855D+01 0.186264514923D-08
    0.962064685696D+00 0.186593750000D+03-0.212942736416D+01-0.775746598674D-08
    0.358586365133D-09 0.100000000000D+01 0.231700000000D+04 0.000000000000D+00
    0.200000000000D+01 0.000000000000D+00 0.931322574616D-09 0.120000000000D+02
    0.596778000000D+06 0.400000000000D+01 0.000000000000D+00 0.000000000000D+00
 1 24  6  8 22  0  0.0 0.262618064880D-03-0.591171556152D-11 0.000000000000D+00
    0.380000000000D+02 0.965625000000D+01 0.575916846391D-08 0.224476946069D+01
    0.400468707085D-06 0.133794534486D-01 0.881403684616D-05 0.515376273918D+04
    0.597600000000D+06 0.428408384323D-07-0.184850020202D+00-0.311061739922D-06
    0.954649515293D+00 0.205687500000D+03 0.103154846829D+01-0.770924969262D-08
   -0.493949146393D-09 0.100000000000D+01 0.231700000000D+04 0.000000000000D+00
    0.200000000000D+01 0.630000000000D+02-0.195577740669D-07 0.380000000000D+02
    0.590418000000D+06 0.400000000000D+01 0.000000000000D+00 0.000000000000D+00
 2 24  6  8 22  0  0.0-0.421294942498D-03 0.693489710102D-11 0.000000000000D+00
    0.420000000000D+02 0.544062500000D+02 0.469698136241D-08 0.102782517794D+01
    0.251270830631D-05 0.159955170238D-01 0.139884650707D-05 0.515369584084D+04
    0.597600000000D+06-0.130385160446D-07 0.180920350578D+01-0.370666384697D-06
    0.967088954954D+00 0.355562500000D+03-0.117863840044D+01-0.846428114271D-08
    0.200008331150D-09 0.100000000000D+01 0.231700000000D+04 0.000000000000D+00
    0.200000000000D+01 0.000000000000D+00-0.176951289177D-07 0.420000000000D+02
    0.590418000000D+06 0.400000000000D+01 0.000000000000D+00 0.000000000000D+00
 3 24  6  8 22  0  0.0 0.404301099479D-03 0.183035808732D-10 0.000000000000D+00
    0.970000000000D+02-0.129062500000D+03 0.400373820034D-08-0.250987386911D+01
   -0.663287937641D-05 0.557779998053D-02 0.492483377457D-05 0.515371961403D+04
    0.597600000000D+06 0.141561031342D-06 0.294429654037D+01-0.298023223877D-07
    0.984940797983D+00 0.296812500000D+03 0.109450705987D+01-0.778711007868D-08
   -0.846463830045D-10 0.100000000000D+01 0.231700000000D+04 0.000000000000D+00
    0.200000000000D+01 0.000000000000D+00 0.139698386192D-08 0.970000000000D+02
    0.590418000000D+06 0.400000000000D+01 0.000000000000D+00 0.000000000000D+00
